# React App

## METAR

https://api.met.no/weatherapi/tafmetar/1.0/documentation#!/data/get_metar
https://www.dwd.de/DE/fachnutzer/luftfahrt/teaser/luftsportberichte/fbeu40_node.html
https://en.wikipedia.org/wiki/METAR
https://developer.mozilla.org/en-US/docs/Web/JavaScript/Reference/Statements/switch

EDHK 040750Z 22015KT 190V250 3700 RA BKN006 OVC011 08/08 Q1006=

[1] ICAO
[2] day + Zulu time
[3] wind direction and speed
[4] wind variation
[5] visibility (m / ft)
[6] [METAR weather codes](https://en.wikipedia.org/wiki/METAR)
[7] clouds
[8] clouds
[9] temperature/dewpoint (M for minus)
[10] QNH
[11] = for end of metar

## Inhalt

METAR / GAFOR API -> Email Benachrichtigung
https://www.aviationweather.gov/dataserver
!! GAFOR geschützt -> DFS !!
DWD Flug Wetterberichte als Vorhersage

- Map fertig
- METAR departure / destination -> Warnings / CAVOK
- Fuel
- Airports (lat long)
- WARNING EXCEED FUEL CAPACITY
- WARNING EDUCATIONAL PURPOSE ONLY

# Node

- TABLE FOR CUSTOM AIRCRAFT
- LOGIN

## Server

[Express Typescript](https://blog.logrocket.com/how-to-set-up-node-typescript-express/)
[Sequelize](https://sequelize.org/docs/v6/getting-started/)

## Formular

- [**Autocomplete**](https://mui.com/material-ui/react-autocomplete/)
