export const METARSdev = [
  'UBBZ 071830Z AUTO 27004KT 240V050 9999 // ///////// 07/00 Q1022',
  'ZMCK 071830Z 08004MPS 9999 BKN100 00/M08 Q1011 NOSIG RMK QFE643.3 53 NT',
  'YLHI 071830Z AUTO 35011KT 9999 -RA SCT018 BKN030 BKN048 23/20 Q1011',
  'YCFS 071830Z AUTO 31003KT 4600 HZ NCD 22/20 Q1005 RF00.0/001.0',
  'WADL 071830Z 28008KT 9999 SCT004 BKN014 OVC035 25/24 Q1012 NOSIG',
  'VOML 071830Z 00000KT 6000 FEW080 26/20 Q1012 NOSIG',
  'VNKT 071830Z 08003KT 6000 FEW015 14/10 Q1023 NOSIG',
  'VGHS 071830Z 00000KT 3500 HZ NSC 27/18 Q1015 NOSIG',
  'UBBN 071830Z 11006KT 9999 NSC 08/M01 Q1017 NOSIG RMK MT OP QFE687',
  'TGPY 071830Z TEST',
  'SPZO 071830Z VRB04KT 9999 SCT050 SCT100 21/04 Q1027 NOSIG RMK BIRD HAZARD RWY 10/28',
  'OPMT 071830Z 00000KT 4000 FU FEW120 24/17 Q1015 NOSIG',
  'LZTT 071830Z 23007KT 9999 OVC033 01/M03 Q1000',
  'LZKZ 071830Z 21008KT CAVOK 03/M02 Q1003 NOSIG',
  'LZIB 071830Z 17009KT 9999 FEW013 BKN014 05/02 Q1001 BECMG BKN007',
  'LWSK 071830Z 09002KT CAVOK 10/04 Q1008 NOSIG',
  'LWOH 071830Z VRB03KT 9999 SCT045 06/03 Q1009',
  'LUKK 071830Z 22003KT CAVOK 08/M01 Q1006 NOSIG',
  'LGKP 071830Z AUTO 22010KT //// -RA ////// 16/11 Q1015 RE//',
  'LEMO 071830Z 23006KT 200V260 9999 FEW018 BKN047 16/13 Q1016 NOSIG',
  'LEJR 071830Z 20008KT 9999 FEW013 BKN060 16/14 Q1016',
  'LBWN 071830Z AUTO VRB02KT 9999 NSC 11/05 Q1008 NOSIG',
  'LBSF 071830Z 23005KT 190V260 9999 SCT087 12/M02 Q1007 NOSIG',
  'LBPD 071830Z AUTO 27004KT 220V290 9999 NCD 12/03 Q1007 NOSIG',
  'LBGO 071830Z AUTO VRB02KT 9999 NCD 08/03 Q1006 NOSIG',
  'LBBG 071830Z AUTO 12010KT 9999 NCD 08/07 Q1009 NOSIG',
  'KS71 071830Z AUTO 10009KT 9SM M12/M14 A3028 ',
  'KQFX 071830Z AUTO 11001KT 3200 BR CLR 02/00 A3011 RMK A02 TSNO',
  'KQFV 071830Z AUTO 31001KT 2000 BR BKN023 00/00 A3014 RMK A02 TSNO',
  'KQFU 071830Z AUTO 07001KT 2400 BR FEW027 04/03 A3014 RMK A02 TSNO',
  'KQEW 071830Z AUTO 25003KT 9999 CLR 12/M05 A3011 RMK A02 TSNO',
  'KQEQ 071830Z AUTO 00000KT 0400 FG CLR 07/07 / RMK A02 TSNO',
  'KQEN 071830Z AUTO 25009G25KT 9999 CLR 07/M02 A3003 RMK A02 TSNO',
  'K40B 071830Z AUTO VRB03KT M01/M04 A2967 RMK AO1 SLP074 T10081036 11006 21055 52009 60001 ',
  'K3U3 071830Z AUTO 00000KT 10SM M03/M11 A3005 ',
  'K38S 071830Z AUTO 00000KT 10SM M06/M09 A3010 ',
  'K1S3 071830Z AUTO 08005KT 10SM M07/M08 A3023 ',
  'HSSK 071830Z 35006KT CAVOK 35/03 Q1007 NOSIG',
  'HRYR 071830Z 07008KT 9999 FEW025 SCT100 25/14 Q1016 NOSIG',
  'GLRB 071830Z 24004KT 9999 SCT016 28/23 Q1008 NOSIG',
  'FMMI 071830Z 36003KT 9999 TS SCT017CB BKN020 19/19 Q1017 NOSIG',
  'FAOR 071830Z 01011KT 9999 FEW035TCU BKN047 19/15 Q1021 TEMPO -TSRA FEW035CB',
  'DIAP 071830Z 29004KT 9000 FEW011 27/25 Q1008 NOSIG',
  'CYCA 071830Z AUTO 03010G18KT 1 3/4SM -RA BR OVC005 01/00 A3006 RMK SLP181',
  'BKPR 071830Z 25013KT CAVOK 09/03 Q1008 NOSIG',
  'KMAI 071829Z AUTO 33008KT 10SM SCT027 27/19 A3002 RMK AO1 T02720194',
  'KFNL 071829Z 00000KT 10SM OVC011 M01/M02 A3009 RMK AO2 FZRANO',
  'CYNA 071829Z AUTO 05012KT 5SM BR OVC018 04/03 A2974 RMK SLP072',
  'CYMM 071829Z AUTO 13012G17KT 9SM OVC026 M12/M18 A3048 RMK SLP357',
  'CYAY 071829Z AUTO 02023G29KT 2 1/2SM -RA BR OVC005 01/00 A2980 RMK VIS VRB 1 1/2-3 SLP094',
  'CBBC 071829Z AUTO 12004KT 9SM -RA -UP BKN044 OVC050 00/M04 A3001 RMK SLP167',
  'HTTB 072100Z 00000KT CAVOK 24/18 Q1013 NOSIG',
  'YBMA 071828Z AUTO 16015KT 6000 RA SCT010 BKN016 BKN029 22/22 Q1004',
  'PAVC 071828Z AUTO 09008KT 4SM -RA BR FEW008 OVC012 04/04 A3017 RMK AO2 PNO $',
  'PASD 071828Z 00000KT 3/4SM -RA BR BKN002 OVC010 04/04 A3020 RMK AO2 P0000 $',
  'KOCH 071828Z AUTO 18006KT 10SM SCT029 BKN065 26/20 A3006 RMK AO2',
  'KMHS 071828Z AUTO VRB03KT 1/4SM SN FZFG BKN008 OVC047 M02/M03 A3001 RMK AO2 P0000 T10171033',
  'CYSC 071828Z AUTO 32012KT 4SM -SN BKN020 OVC027 M06/M09 A2981 RMK SLP110',
  'YBTL 071827Z AUTO 04011KT 6000 -SHRA SCT019 BKN035 BKN041 25/24 Q1007',
  'PAEH 071827Z 03019KT 010V170 1 1/4SM BR BKN002 03/03 A3014 RMK AO2A SLP213',
  'KSTS 071827Z 00000KT 8SM FEW006 BKN029 07/05 A3022 RMK AO2 T00720050 $',
  'KPHP 071827Z AUTO 08010KT 2 1/2SM -SN BR OVC018 M08/M11 A3031 RMK AO2 T10831106',
  'KCOT 071827Z AUTO 14008KT 7SM OVC031 29/20 A2995 RMK AO2 T02940200',
  'KCLM 071827Z AUTO 32004KT 10SM BKN016 07/02 A3004 RMK AO2 T00670017',
  'CYWJ 071827Z VRB02KT 10SM FEW044 FEW210 M24/M27 A3068 RMK SC1CI1 CI TR SLP427',
  'CYUT 071827Z 36024KT 1/2SM BLSN BKN035 M20/M23 A3080 RMK SC6 SLP436',
  'PAVA 071826Z AUTO 17023KT 1 1/4SM UP BR OVC006 01/01 A2997 RMK AO2 PK WND 17029/1822 UPB03 CIG 004V008 P0000 FZRANO',
  'LTBS 071826Z 10005KT 9999 SCT030 BKN100 12/12 Q1016 RESHRA NOSIG',
  'LPBJ 071826Z 21009KT 2000 -RADZ SCT004 BKN015 15/15 Q1014',
  'CYPY 071826Z AUTO 12008KT 5SM -SN BKN027 M13/M17 A3054 RMK SLP370',
  'CYER 071826Z AUTO 29004KT 9SM BKN014 OVC037 M12/M16 A3075 RMK SLP418',
  'SAWH 071825Z 34012G26KT 300V020 9999 VCSH FEW034 SCT045 11/02 Q0990',
  'PAMY 071825Z AUTO 13009G17KT 10SM BKN010 01/01 A2996 RMK AO2 PK WND 18031/1758 CIG 008V012 PRESRR FZRANO',
  'PAKI 071825Z AUTO 19019KT 1SM UP BR OVC004 01/01 A3007 RMK AO2 UPE05B23RAB05E23 P0000 FZRANO',
  'OPLA 071825Z 00000KT 5000 FU NSC 21/13 Q1016 NOSIG RMK QFE990 A30.01',
  'KVOA 071825Z AUTO 24006KT 7SM CLR 26/22 A3009 RMK A01',
  'KSXT 071825Z AUTO VRB05KT M1/4SM -SN FZFG VV002 M02/M03 A2991 RMK AO2 SNB15 P0000 T10221033 $',
  'KSLK 071825Z AUTO 31008KT 1 3/4SM -SN BKN023 OVC029 M07/M12 A2985 RMK AO2 SNB1755 P0000 T10721122',
  'KOTH 071825Z VRB04KT 10SM -RA FEW009 BKN028 OVC041 04/03 A3004 RMK AO2 P0001',
  'KMPV 071825Z AUTO 32014G22KT 1 1/2SM -SN FEW019 BKN024 OVC030 M05/M09 A2983 RMK AO2 P0000 T10501089',
  'KLTS 071825Z 03019KT 10SM OVC018 09/03 A3006 RMK AO2A CIG 017 RWY18L CIG 017 RWY18R SLP179 $',
  'KGVW 071825Z AUTO VRB05KT 2SM HZ FEW003 SCT029 BKN075 24/22 A3006 RMK A01',
  'KEZP 071825Z AUTO 15008KT 10SM CLR 25/22 A3008 RMK A01',
  'KAUG 071825Z AUTO 34012KT 1 1/4SM -SN FEW009 BKN015 OVC023 00/M03 A2968 RMK AO2 P0000 T00001028',
  'KABH 071825Z AUTO 00000KT 10SM OVC010 M03/M05 A3007 RMK AO2 SLP232',
  'K4U6 071825Z AUTO 13011KT 10SM M10/M14 A3028 RMK A01 Circle ',
  'K1IN 071825Z AUTO 11016KT 4SM BLSN OVC020 M15/M18 A3044 RMK AO2 SLP375 $',
  'EHWO 071825Z AUTO 24006KT 9999 DZRA SCT018 BKN022 BKN026 02/01 Q1000 WHT',
  'EHVL 071825Z AUTO 30017KT 9999 FEW024 SCT030 03/M02 Q0997 BLU',
  'EHVK 071825Z AUTO 24006KT 9999 FEW052 SCT058 BKN072 01/00 Q0999 BLU',
  'EHSC 071825Z AUTO 31019KT 9999 ///////// 04/M01 Q1001 W07/H14',
  'EHSA 071825Z AUTO 30015KT 9999 ///////// 04/M01 Q1000 W06/H15',
  'EHRD 071825Z AUTO 30007KT 260V340 9999 FEW015CB 02/M00 Q0999 TEMPO 5000 -SHRASN',
  'EHPG 071825Z AUTO 32015KT 270V360 9999 FEW022 04/M02 Q0999',
  'EHMG 071825Z AUTO 31019KT 270V340 9999 FEW015CB SCT034 03/M01 Q0998',
  'EHMA 071825Z AUTO 30011KT 9999 SCT021CB SCT030 BKN037 04/M02 Q0996',
  'EHLW 071825Z AUTO 24006KT 9999 FEW015CB M00/M01 Q0997 BLU',
  'EHLE 071825Z AUTO 26006KT 9999 NSC 00/M00 Q0998 NOSIG',
  'EHKV 071825Z AUTO 31017KT 240V010 9999 FEW014 04/M02 Q0998',
  'EHKD 071825Z AUTO 30008KT 270V340 9999 FEW015CB SCT025 BKN043 02/M01 Q0998 BLU TEMPO 1500 SHRASN SCT006 SCT015CB',
  'EHJR 071825Z AUTO 31019KT //// // ///////// 04/M04 Q0998 RE// W07/H21',
  'EHJA 071825Z AUTO 33013KT 9999 FEW010/// SCT039/// 03/M01 Q0998',
  'EHHW 071825Z AUTO 30013KT 280V350 //// // FEW025/// 03/M03 Q0995 RE//',
  'EHGR 071825Z AUTO 23005KT 9999 BKN077 BKN084 OVC090 01/01 Q1000 BLU',
  'EHGG 071825Z AUTO 25005KT 9999 NCD M01/M02 Q0997 TEMPO 4000 SHGSSNRA SCT025CB',
  'EHFD 071825Z AUTO 28017KT 9999 FEW023/// 03/M02 Q0995',
  'EHEH 071825Z AUTO 21005KT 7000 BR FEW045 SCT065 OVC072 01/00 Q1000 WHT TEMPO 3500 -SN BKN004 OVC006 BECMG SCT020 BKN030',
  'EHDL 071825Z AUTO 29010KT 220V360 2100 SHSNRA FEW002 SCT004 BKN005 FEW015CB 00/M00 Q0999 RERA YLO',
  'EHBK 071825Z AUTO 31005KT 270V360 5000 -SNRA SCT003 BKN005 BKN007 FEW015CB 02/01 Q1000 BECMG 4000 SNRA BKN004',
  'EHAM 071825Z 28005KT 250V310 9999 FEW018 FEW020CB 01/M00 Q0999 TEMPO 6000 -SHSNRA',
  'EHAK 071825Z AUTO 31019KT 9999 FEW021/// 02/M02 Q0995',
  'CYYY 071825Z 05014G20KT 3/4SM R06/2600V3500FT/N BR VV003 00/00 A2975 RMK FG8 SLP081',
  'CYPO 071825Z AUTO 28008KT 240V320 9SM -SN CLR M12/M18 A3070 RMK SLP406',
  'CYNM 071825Z AUTO 32015G25KT 1SM -SN VV014 M09/M11 A3021 RMK SLP255',
  'CYKP 071825Z AUTO 34008KT 9SM -SN BKN019 OVC048 M08/M12 A3066 RMK SLP405',
  'PPIZ 071824Z AUTO 02009KT 4SM -SN BR BKN025 OVC044 M09/M09 A3006 RMK AO2 P0000 FZRANO',
  'KSMP 071824Z AUTO 00000KT 4SM BR OVC002 M03/M04 A2995 RMK AO2 T10281044',
  'K1DN 071824Z AUTO 10014KT 2 3/4SM BLSN FEW013 OVC022 M15/M18 A2875 RMK AO2 VIS 2 3/4V4 SNB08E08 OVC V BKN SLP786 $',
  'ETAD 071824Z 24017G24KT 9999 -RA OVC020 04/00 A2947 RMK AO2A RAB18 SLP979',
  'EBLB 071824Z AUTO 26004KT 0900 SN OVC005/// M00/M00 Q0997 AMB',
  'EBDT 071824Z AUTO 33009KT 8000 -SN OVC007/// 02/01 Q1000 GRN',
  'TXKF 071823Z 25027G37KT 9999 SCT032 20/13 Q1005 ',
  'SBPA 071823Z 22006KT 4000 -RA SCT020 BKN070 24/23 Q1006 RERA',
  'KRDD 071823Z 19011KT 10SM FEW017 BKN024 OVC033 06/03 A3015 RMK AO2 T00610033 $',
  'KOZR 071823Z AUTO 25006KT 10SM SCT024 25/18 A3002 RMK AO2 PRESFR SLP166',
  'KMWL 071823Z AUTO 20004KT 10SM BKN026 25/17 A2998 RMK AO2 T02500172',
  'KLHX 071823Z AUTO 07010KT 3SM BR OVC003 M02/M03 A3012 RMK AO2 T10221028',
  'KGPT 071823Z 20005KT 10SM SCT023 BKN030 OVC080 26/21 A3005 RMK AO2 T02610206',
  'KDSM 071823Z 10014KT 10SM BKN033 OVC250 06/M02 A3037 RMK AO2 T00611022',
  'CYQY 071823Z 03013KT 15SM SCT006 BKN023 00/M01 A2955 RMK ST4SC3 SLP011',
  'CYPX 071823Z AUTO 10006KT 9SM SCT016 OVC091 M02/M04 A3047 RMK SLP321',
  'CYPW 071823Z 09007KT 050V120 25SM FEW021 BKN051 BKN068 05/04 A3005 RMK SC2SC4AC1 SLP181',
  'CYGW 071823Z AUTO 33011G16KT 2SM -SN SCT010 BKN019 OVC040 M11/M13 A3047 RMK SLP320',
  'CYDQ 071823Z AUTO 05004KT 3SM -SN FEW010 M16/M19 A3016 RMK SLP278',
  'KMBG 071822Z AUTO 09009KT 3/4SM -SN BKN015 OVC024 M11/M14 A3039 RMK AO2 P0002 T11061139',
  'KLOR 071822Z AUTO 23004KT 10SM SCT026 SCT050 26/19 A3002 RMK AO2 SLP148',
  'KHEZ 071822Z AUTO 04008KT 5SM HZ BKN026 BKN031 27/19 A3008 RMK AO2',
  'KHDO 071822Z AUTO 14012KT 8SM SCT024 OVC033 26/20 A2998 RMK AO2 T02610200',
  'KEVM 071822Z AUTO 00000KT 10SM CLR 00/M08 A3054 RMK AO2',
  'K2V6 071822Z AUTO 10006KT 10SM OVC008 M03/M08 A3014 RMK AO2',
  'CYSM 071822Z 10005G16KT 070V160 2SM -SN DRSN OVC030 M14/M19 A3057 RMK SC8 SLP382',
  'BGTL 071822Z AUTO 00000KT 0600 R08/0700V0750 HZ FEW000 M15/M18 A3078 RMK AO2 SLP413 TSNO $',
  'UAAA 071821Z 10004MPS 070V140 2100 BR FU FEW200 05/02 Q1015 NOSIG',
  'MMMM 071821Z 25008KT 8SM FEW040 BKN300 29/06 A3022 RMK 8/102 HZY',
  'KTDR 071821Z AUTO 25012KT 10SM SCT008 26/22 A3002 RMK AO2 SLP169 $',
  'KDRT 071821Z AUTO 11010KT 8SM BKN015 25/18 A2995 RMK AO2 T02500183',
  'FAGG 071821Z AUTO 09009KT 9999 // BKN004/// BKN010/// OVC062/// 18/18 Q1008',
  'CZMT 071821Z 33011KT 15SM SCT030 BKN080 BKN240 M00/M08 A3007 RMK SC3AC3CI1 SLP184',
  'CYMT 071821Z AUTO 32013G22KT 6SM -SN FEW016 OVC034 M07/M11 A2998 RMK SLP181',
  'CYMH 071821Z AUTO 03012G18KT 1 3/4SM BR OVC003 01/01 A2992 RMK SLP133',
  'CYJT 071821Z 08007KT 15SM BKN024 BKN038 01/M03 A2959 RMK SC5SC2 SLP024',
  'PKWA 071820Z AUTO 07015KT 10SM SCT021 SCT028 SCT045 A2986 RMK AO2',
  'LXGB 071820Z 26008KT 9999 FEW020 SCT027 BKN080 17/14 Q1016 NOSIG RMK BLU BLU',
  'LTFM 071820Z 21006KT CAVOK 11/07 Q1011 NOSIG RMK RWY17L 20008KT RWY34L 21006KT RWY16R 21006KT RWY36 19008KT RWY18 19011KT',
  'LTFJ 071820Z 00000KT 9999 SCT035 BKN080 11/10 Q1012 NOSIG RMK RWY24 00000KT',
  'LTFE 071820Z 12003KT 9999 SCT035 BKN100 10/09 Q1015 NOSIG RMK RWY10 11003KT',
  'LTFC 071820Z 24004KT 9999 BKN035 BKN090 09/04 Q1015 RESHRA RMK RWY23 35004KT',
  'LTCS 071820Z 11007KT CAVOK 10/M02 Q1017 RMK RWY22 10007KT 2AC100 4CI200',
  'LTCJ 071820Z 04006KT CAVOK 04/00 Q1017 NOSIG RMK RWY20 36005KT 5CI200',
  'LTCG 071820Z 00000KT CAVOK 12/01 Q1016 NOSIG RMK RWY29 VRB04KT',
  'LTCE 071820Z 23004KT 170V280 9999 FEW040 BKN080 03/M05 Q1018 NOSIG RMK RWY08R 20008KT RWY26R 24007KT 210V270 RWY08L 23007KT 200V260 2SC040 5AC080',
  'LTCC 071820Z 36004KT 340V040 CAVOK 08/M00 Q1017 NOSIG RMK RWY16 00000KT 3CI180',
  'LTBU 071820Z 22003KT 190V280 9999 FEW040 SCT080 09/07 Q1011 RMK RWY22 24004KT',
  'LTBR 071820Z 30006KT 9999 -SHRA SCT035 BKN090 11/08 Q1012 NOSIG RMK RWY07 32005KT',
  'LTBJ 071820Z VRB04KT 9999 -TSRA FEW015CB SCT030 BKN100 11/11 Q1013 RESHRA BECMG TL1900 NSW RMK RWY16 08004KT 310V110',
  'LTBA 071820Z 16005KT 9999 SCT035 BKN100 12/08 Q1011 RESHRA RMK RWY23 15004KT 120V190',
  'LTAZ 071820Z 22005KT 9999 FEW040 BKN180 05/M04 Q1015 RMK RWY29 25005KT 230V300',
  'LTAU 071820Z VRB01KT 9999 FEW040 SCT100 BKN180 07/M06 Q1015 NOSIG RMK RWY07 /////KT',
  'LTAT 071820Z 16004KT 9999 FEW035 BKN200 06/M02 Q1017 NOSIG RMK RWY03 00000KT',
  'LTAP 071820Z 00000KT 9999 FEW040 SCT180 05/03 Q1013 NOSIG RMK RWY23 28003KT',
  'LTAJ 071820Z 00000KT 9999 FEW040 BKN100 10/03 Q1016 NOSIG RMK RWY10 VRB02KT 2CU040 5AC100',
  'LTAI 071820Z 35004KT 9999 SCT030 BKN100 13/11 Q1016 NOSIG RMK RWY18C 34004KT 300V360 RWY36R 36003KT RWY18L 03004KT',
  'LTAG 071820Z 00000KT 9999 SCT030 BKN180 14/10 Q1016 NOSIG RMK 4CU030 6CS180',
  'LTAF 071820Z 00000KT 9999 SCT030 BKN100 15/11 Q1016 NOSIG RMK RWY23 00000KT 3CU030 6AC100',
  'LTAC 071820Z 05004KT 9999 FEW040 SCT100 06/M01 Q1014 NOSIG RMK RWY21L 09004KT RWY03L 03004KT RWY21R VRB02KT',
  'LSZS 071820Z AUTO 22009KT 9999 BKN050 M01/M05 Q1000',
  'LSZR 071820Z 28010KT 9999 FEW090 BKN100 05/M02 Q1003 RMK N',
  'LSZL 071820Z AUTO 19004KT 9999NDV -RA FEW041 SCT052 08/06 Q1003 RERA RMK',
  'LSZH 071820Z 29008KT 9999 BKN045 04/M03 Q1004 NOSIG',
  'LSZG 071820Z AUTO 27010KT 250V310 9999 OVC044 06/M02 Q1004',
  'LSZC 071820Z AUTO 33010KT 9999 FEW055 BKN080 06/M02 Q1004',
  'LSZB 071820Z 28009KT 9999 -DZ SCT033 BKN038 04/01 Q1004',
  'LSZA 071820Z VRB02KT 9999 SHRA FEW040 BKN050 09/05 Q1003',
  'LSMP 071820Z AUTO 21006KT 9999NDV FEW028 BKN050 05/01 Q1004 RMK',
  'LSMM 071820Z AUTO VRB02KT 9999NDV SCT051 OVC058 05/M00 Q1003 RMK',
  'LSME 071820Z AUTO VRB02KT 9999NDV BKN042 OVC130 05/M02 Q1004 RMK',
  'LSMD 071820Z AUTO 32010KT 9999NDV BKN048 OVC130 05/M03 Q1003 RMK',
  'LSMA 071820Z AUTO 07012G22KT 040V100 9999NDV BKN055 OVC066 06/M02 Q1003 RMK',
  'LSGS 071820Z AUTO 25015KT 9999 FEW075 08/M01 Q1003',
  'LSGG 071820Z 20014KT 9999 FEW010 BKN030 05/02 Q1006 NOSIG',
  'LSGC 071820Z AUTO 24008KT 210V280 9999 BKN013 M01/M02 Q1002',
  'LOWW 071820Z 15007KT CAVOK 03/01 Q1000 NOSIG',
  'LOWS 071820Z AUTO 23005KT 9999 BKN060 04/M01 Q1001 NOSIG',
  'LOWL 071820Z AUTO 23005KT 9999 BKN070 05/M02 Q1000 NOSIG',
  'LOWK 071820Z AUTO VRB02KT 9999 FEW060 BKN070 07/01 Q1001 NOSIG',
  'LOWI 071820Z VRB06KT 9999 FEW070 07/M02 Q1000 NOSIG',
  'LOWG 071820Z VRB02KT 6000 FEW004 BKN006 03/02 Q1002 TEMPO 4000 BR',
  'LLBG 071820Z 03005KT CAVOK 16/10 Q1015 NOSIG',
  'LIRZ 071820Z AUTO 20011KT 9999 FEW034/// 11/04 Q1006',
  'LIRQ 071820Z 28002KT 9999 FEW070 12/05 Q1006',
  'LIRN 071820Z 23008KT 9999 FEW030 11/06 Q1010 NOSIG',
  'LIRF 071820Z 19009KT CAVOK 13/09 Q1008 NOSIG',
  'LIRA 071820Z 18008KT 9999 SCT040 12/07 Q1009',
  'LIPZ 071820Z 15003KT CAVOK 10/08 Q1003 NOSIG',
  'LIPY 071820Z AUTO 21006KT 9999 BKN064/// 14/04 Q1005',
  'LIPX 071820Z 21006KT 9999 SCT060 11/02 Q1003',
  'LIPR 071820Z 23003KT 180V290 9999 FEW060 13/01 Q1004',
  'LIPQ 071820Z AUTO 20004KT 140V220 9999 BKN068/// OVC092/// 12/06 Q1003',
  'LIPO 071820Z AUTO 22005KT 9999 FEW052/// SCT058/// BKN140/// 12/05 Q1003',
  'LIPH 071820Z VRB02KT 9999 BKN070 10/06 Q1003',
  'LIPE 071820Z 20003KT 160V220 CAVOK 13/02 Q1003',
  'LIMZ 071820Z AUTO 33003KT 9999 SCT170/// 10/04 Q1002',
  'LIML 071820Z 25003KT 210V280 9999 SCT050 BKN070 12/03 Q1003 NOSIG',
  'LIMJ 071820Z 19015KT 9999 FEW029 BKN035 14/10 Q1003',
  'LIMF 071820Z 03004KT 9999 SCT060 10/05 Q1002',
  'LIME 071820Z 22003KT 9999 BKN060 12/03 Q1003 NOSIG',
  'LIMC 071820Z 16003KT 9999 SCT070 09/03 Q1003 NOSIG',
  'LIEO 071820Z 23013KT CAVOK 14/09 Q1008',
  'LIEE 071820Z VRB02KT CAVOK 14/09 Q1010',
  'LIEA 071820Z 21011KT 9999 BKN018 14/13 Q1009',
  'LICR 071820Z AUTO 01007KT 9999 NCD 13/08 Q1012',
  'LICJ 071820Z 16006KT CAVOK 11/07 Q1012',
  'LICD 071820Z AUTO 01007KT 9999 NCD 15/10 Q1014',
  'LICC 071820Z 20004KT 170V230 9999 FEW050 12/08 Q1012',
  'LICB 071820Z AUTO 18003KT 140V210 9999 FEW046/// 12/10 Q1012',
  'LICA 071820Z AUTO 28008KT 9999 NCD 11/08 Q1012',
  'LIBR 071820Z 21008KT CAVOK 13/07 Q1009',
  'LIBP 071820Z AUTO VRB04KT 9999 NCD 13/02 Q1006',
  'LIBD 071820Z 24006KT CAVOK 11/05 Q1008',
  'LGTS 071820Z 12003KT 9999 FEW030 11/07 Q1009 NOSIG',
  'LGSR 071820Z 16012KT 9999 FEW025 15/10 Q1014',
  'LGSO 071820Z AUTO 19012KT 170V230 //// -RA ////// 15/11 Q1012 RE//',
  'LGSA 071820Z 27004KT 9999 FEW025 SCT090 13/10 Q1012',
  'LGRP 071820Z VRB03KT 9999 SCT018 13/09 Q1015 NOSIG',
  'LGMT 071820Z 21013G23KT 9999 FEW020 SCT025 15/10 Q1013',
  'LGLM 071820Z 00000KT 9999 FEW015 14/10 Q1009',
  'LGKZ 071820Z AUTO VRB02KT //// // ////// 04/03 Q1009 RE//',
  'LGKV 071820Z 00000KT 9999 FEW025 SCT070 10/08 Q1009',
  'LGKR 071820Z VRB02KT 9999 SCT010 SCT015TCU BKN025 BKN080 11/10 Q1009 NOSIG',
  'LGKO 071820Z 16005KT 9999 FEW018 15/09 Q1015',
  'LGKL 071820Z 19006KT 7000 -TSRA FEW018CB BKN030 OVC080 15/14 Q1011',
  'LGIR 071820Z 16011KT 9999 FEW020 14/10 Q1014 NOSIG',
  'LGIO 071820Z 00000KT 9999 FEW015 BKN025 OVC080 08/07 Q1010',
  'LGEL 071820Z 00000KT 9999 -DZ FEW025 SCT030 BKN070 12/09 Q1011',
  'LGAV 071820Z 34003KT 9999 SCT020 SCT070 12/08 Q1012 NOSIG',
  'LGAL 071820Z 00000KT 9999 FEW020 BKN060 13/09 Q1009',
  'LGAD 071820Z 14005KT 9999 FEW025 SCT080 10/09 Q1010',
  'LCRA 071820Z 28006KT CAVOK 15/09 Q1016 NOSIG',
  'LCEN 071820Z 29008KT 9999 FEW025 SCT030 15/09 Q1016 NOSIG RMK RWY11 29005KT',
  'LATI 071820Z 10004KT CAVOK 11/07 Q1010 NOSIG',
  'KW99 071820Z AUTO 31009G24KT 10SM SCT047 SCT055 09/M02 A3010 RMK AO2',
  'KQFW 071820Z AUTO 07001KT 2000 BR FEW048 01/M00 A2996 RMK A02 TSNO',
  'KQFT 071820Z AUTO 17001KT 4800 CLR 04/02 A3012 RMK A02 TSNO',
  'KQFB 071820Z AUTO 31001KT 9000 HZ CLR 05/02 A3021 RMK A02 TSNO',
  'KQEY 071820Z AUTO 09001KT 9999 CLR 06/M03 A2985 RMK A02 TSNO',
  'KQEV 071820Z AUTO 26003KT 9999 CLR 07/01 A3010 RMK A02 TSNO',
  'KQES 071820Z AUTO 35001KT 2800 BR CLR 05/03 A3020 RMK A02 TSNO',
  'KQER 071820Z AUTO 33001KT 1200 BR SCT001 OVC022 01/01 A3007 RMK A02 TSNO',
  'KQEP 071820Z AUTO 04001KT 4800 CLR 05/03 A3014 RMK A02 TSNO',
  'KQEJ 071820Z AUTO 09001KT 3200 // OVC038 01/M00 A3009 RMK A02 TSNO',
  'KQEI 071820Z AUTO 15001KT 4800 HZ OVC040 05/02 A3010 RMK A02 TSNO',
  'KPO1 071820Z AUTO 11014KT 1 1/4SM UP HZ CLR M12/M15 A3039 RMK AO2',
  'KPIR 071820Z AUTO 09007KT 5SM -SN OVC026 M11/M13 A3038 RMK AO2 P0000 T11061133',
  'KMVH 071820Z AUTO 15003KT 10SM CLR M09/M11 A3009 RMK AO2 PWINO',
  'KLKV 071820Z AUTO 16014G18KT 6SM -SN SCT008 BKN023 OVC029 M02/M05 A2997 RMK AO2 UPB10E14SNE10B14 P0000 FZRANO',
  'KIKT 071820Z AUTO VRB03KT 10SM CLR 27/22 A3009 RMK A01',
  'KHRF 071820Z AUTO 19007KT 10SM CLR M01/M09 A3008 RMK AO2',
  'KGUR 071820Z AUTO 00000KT 10SM SCT019 BKN100 01/M02 A3007 RMK AO2 SLP234',
  'KGRF 071820Z AUTO 29003KT 10SM BKN010 05/03 A3002 RMK AO2 SLP172 $',
  'KGNG 071820Z AUTO 09016KT 10SM BKN029 M03/M05 A3014 RMK AO2',
  'KEAT 071820Z AUTO 27004KT 10SM BKN005 OVC025 01/M01 A3010 RMK AO2 T00061006',
  'KDSF 071820Z AUTO 00000KT 10SM CLR 27/22 A3009 RMK A01',
  'KCWC 071820Z AUTO 33010G18KT 10SM CLR 17/09 A3005 RMK AO2',
  'KAVK 071820Z AUTO 02009G18KT 10SM OVC021 05/00 A3018 RMK AO2 PWINO',
  'KAPS 071820Z AUTO 24006KT 10SM SCT023 SCT029 BKN055 26/20 A3007 RMK AO2',
  'EYVI 071820Z 17015KT 9999 -SN SCT024 M00/M06 Q0994 BECMG 5000 SN OVC020',
  'EYSA 071820Z 16016KT 5000 SN BLSN BKN007 OVC014 M01/M02 Q0990 TEMPO 3000',
  'EYPA 071820Z 18019KT 3600 SNRA SCT011 BKN047 01/M00 Q0986',
  'EYKA 071820Z 16008KT 120V200 1100 R26/P2000N SN OVC007 M01/M03 Q0992',
  'EVVA 071820Z AUTO 15013KT 0800 +SN VV003 M01/M01 Q0984',
  'EVRA 071820Z 15012KT 2700 SN SCT004 BKN009 OVC015 M01/M02 Q0990 RESN TEMPO BKN004',
  'EVLA 071820Z AUTO 18014KT 9999 BKN010/// BKN026/// 01/M00 Q0984',
  'EVGA 071820Z 16014KT 9000 -SN FEW021 BKN026 OVC043 M01/M05 Q0991 TEMPO 2000 SN',
  'ETWM 071820Z AUTO 28002KT //// // ////// M00/M01 Q0997 ///',
  'ETSN 071820Z 26005KT 9999 SCT160 SCT240 03/M06 Q1000 BLU+BLU+ BECMG BLU',
  'ETSL 071820Z 27003KT 9999 FEW230 03/M05 Q1001 BLU+',
  'ETSI 071820Z 26004KT 9999 FEW160 SCT200 03/M06 Q1001 BLU+',
  'ETSH 071820Z 24009KT 4500 -SN BR SCT005 BKN020 00/M00 Q0996 GRN',
  'ETSB 071820Z AUTO 25013KT //// // ////// 03/M00 Q0997 ///',
  'ETNW 071820Z 26007KT 9999 FEW008 BKN070 01/M00 Q0996 BLU',
  'ETNT 071820Z 26005KT 9999 FEW030CB SCT220 01/M03 Q0995 BLACKBLU+',
  'ETNS 071820Z 26007KT 9999 FEW040 M01/M06 Q0993 BLU+BLU TEMPO GRN',
  'ETNN 071820Z 25004KT 3700 -RA BR BKN008 OVC014 01/00 Q0999 GRN GRN TEMPO YLO',
  'ETNL 071820Z 27012KT 9999 FEW040 02/M07 Q0992 BLU+BLU+'
]
