let metar1 = 'KLAX 081053Z 00000KT 10SM FEW200 SCT250 11/03 A3022 RMK AO2 SLP230 T01060033'
let metar2 = 'LTFM 081050Z 35023KT 9999 FEW012 BKN022 01/M03 Q1034 RESHSN NOSIG RMK RWY17L 34023KT RWY34L 34024KT RWY16R 34020KT RWY36 35026KT RWY18 35024KT'
let metar3 = 'EGLL 081050Z VRB01KT 6000 NSC 02/M01 Q1036 BECMG 9999'
let metar4 = ' UUEE 081100Z 25006MPS 9999 BKN018 M04/M07 Q1038 R24L/510145 R24C/510145 NOSIG'